$$SOE
2460154.500000000, A.D. 2023-Jul-29 00:00:00.0000, 2.325972389451252E+08, 4.053348946069139E+08, 2.049693448568639E+07,
2460161.500000000, A.D. 2023-Aug-05 00:00:00.0000, 2.244419859834110E+08, 4.108260792537458E+08, 2.233309059638789E+07,
2460168.500000000, A.D. 2023-Aug-12 00:00:00.0000, 2.161810906534274E+08, 4.161234990913588E+08, 2.415869256775418E+07,
2460175.500000000, A.D. 2023-Aug-19 00:00:00.0000, 2.078190129656144E+08, 4.212257562098401E+08, 2.597294314815354E+07,
2460182.500000000, A.D. 2023-Aug-26 00:00:00.0000, 1.993602065392058E+08, 4.261315505296703E+08, 2.777505878470853E+07,
2460189.500000000, A.D. 2023-Sep-02 00:00:00.0000, 1.908091169167544E+08, 4.308396780380389E+08, 2.956426962070724E+07,
2460196.500000000, A.D. 2023-Sep-09 00:00:00.0000, 1.821701799845497E+08, 4.353490289240577E+08, 3.133981947028288E+07,
2460203.500000000, A.D. 2023-Sep-16 00:00:00.0000, 1.734478206640139E+08, 4.396585855582100E+08, 3.310096575113735E+07,
2460210.500000000, A.D. 2023-Sep-23 00:00:00.0000, 1.646464522873955E+08, 4.437674206064616E+08, 3.484697936156464E+07,
2460217.500000000, A.D. 2023-Sep-30 00:00:00.0000, 1.557704763160192E+08, 4.476746964731332E+08, 3.657714463119850E+07,
2460224.500000000, A.D. 2023-Oct-07 00:00:00.0000, 1.468242800449427E+08, 4.513796655305004E+08, 3.829075951772189E+07,
2460231.500000000, A.D. 2023-Oct-14 00:00:00.0000, 1.378122333292866E+08, 4.548816678228101E+08, 3.998713568430158E+07,
2460238.500000000, A.D. 2023-Oct-21 00:00:00.0000, 1.287386875581069E+08, 4.581801278512710E+08, 4.166559829372233E+07,
2460245.500000000, A.D. 2023-Oct-28 00:00:00.0000, 1.196079754500590E+08, 4.612745527011793E+08, 4.332548583520898E+07,
2460252.500000000, A.D. 2023-Nov-04 00:00:00.0000, 1.104244104172218E+08, 4.641645307398124E+08, 4.496615003609222E+07,
2460259.500000000, A.D. 2023-Nov-11 00:00:00.0000, 1.011922856700068E+08, 4.668497302855411E+08, 4.658695579369172E+07,
2460266.500000000, A.D. 2023-Nov-18 00:00:00.0000, 9.191587327838343E+07, 4.693298981856908E+08, 4.818728110295588E+07,
2460273.500000000, A.D. 2023-Nov-25 00:00:00.0000, 8.259942325897621E+07, 4.716048583283327E+08, 4.976651697609770E+07,
2460280.500000000, A.D. 2023-Dec-02 00:00:00.0000, 7.324716271398401E+07, 4.736745100791836E+08, 5.132406735173386E+07,
2460287.500000000, A.D. 2023-Dec-09 00:00:00.0000, 6.386329509797669E+07, 4.755388265861040E+08, 5.285934898232296E+07,
2460294.500000000, A.D. 2023-Dec-16 00:00:00.0000, 5.445199989809240E+07, 4.771978529642388E+08, 5.437179127501228E+07,
2460301.500000000, A.D. 2023-Dec-23 00:00:00.0000, 4.501743307361730E+07, 4.786517050496492E+08, 5.586083611040097E+07,
2460308.500000000, A.D. 2023-Dec-30 00:00:00.0000, 3.556372691264433E+07, 4.799005697710733E+08, 5.732593784800863E+07,
2460315.500000000, A.D. 2024-Jan-06 00:00:00.0000, 2.609498753097672E+07, 4.809447047772809E+08, 5.876656348783025E+07,
2460322.500000000, A.D. 2024-Jan-13 00:00:00.0000, 1.661529318128492E+07, 4.817844355121250E+08, 6.018219254934174E+07,
2460329.500000000, A.D. 2024-Jan-20 00:00:00.0000, 7.128694592726870E+06, 4.824201528247602E+08, 6.157231680839857E+07,
2460336.500000000, A.D. 2024-Jan-27 00:00:00.0000, -2.360784688990915E+06, 4.828523117685674E+08, 6.293644013165197E+07,
2460343.500000000, A.D. 2024-Feb-03 00:00:00.0000, -1.184914839137071E+07, 4.830814306398693E+08, 6.427407837033522E+07,
2460350.500000000, A.D. 2024-Feb-10 00:00:00.0000, -2.133242775951130E+07, 4.831080899652338E+08, 6.558475926434156E+07,
2460357.500000000, A.D. 2024-Feb-17 00:00:00.0000, -3.080668181844771E+07, 4.829329314453028E+08, 6.686802234468821E+07,
2460364.500000000, A.D. 2024-Feb-24 00:00:00.0000, -4.026799761943642E+07, 4.825566568698072E+08, 6.812341883241642E+07,
2460371.500000000, A.D. 2024-Mar-02 00:00:00.0000, -4.971249044275875E+07, 4.819800269709532E+08, 6.935051152870235E+07,
2460378.500000000, A.D. 2024-Mar-09 00:00:00.0000, -5.913630382021257E+07, 4.812038601519173E+08, 7.054887467842758E+07,
2460385.500000000, A.D. 2024-Mar-16 00:00:00.0000, -6.853560898412497E+07, 4.802290312873812E+08, 7.171809378723952E+07,
2460392.500000000, A.D. 2024-Mar-23 00:00:00.0000, -7.790660384864044E+07, 4.790564717054825E+08, 7.285776549253520E+07,
2460399.500000000, A.D. 2024-Mar-30 00:00:00.0000, -8.724551376556753E+07, 4.776871703248848E+08, 7.396749769199204E+07,
2460406.500000000, A.D. 2024-Apr-06 00:00:00.0000, -9.654859379950064E+07, 4.761221725772424E+08, 7.504690963071552E+07,
2460413.500000000, A.D. 2024-Apr-13 00:00:00.0000, -1.058121289741904E+08, 4.743625779497736E+08, 7.609563168971962E+07,
2460420.500000000, A.D. 2024-Apr-20 00:00:00.0000, -1.150324334448368E+08, 4.724095388260874E+08, 7.711330518241984E+07,
2460427.500000000, A.D. 2024-Apr-27 00:00:00.0000, -1.242058501141733E+08, 4.702642600641812E+08, 7.809958225265354E+07,
2460434.500000000, A.D. 2024-May-04 00:00:00.0000, -1.333287506057027E+08, 4.679279986073269E+08, 7.905412580877492E+07,
2460441.500000000, A.D. 2024-May-11 00:00:00.0000, -1.423975353574298E+08, 4.654020630254973E+08, 7.997660946386966E+07,
2460448.500000000, A.D. 2024-May-18 00:00:00.0000, -1.514086337557944E+08, 4.626878130087832E+08, 8.086671747666076E+07,
2460455.500000000, A.D. 2024-May-25 00:00:00.0000, -1.603585042866973E+08, 4.597866588056726E+08, 8.172414469064200E+07,
2460462.500000000, A.D. 2024-Jun-01 00:00:00.0000, -1.692436346452800E+08, 4.567000605488058E+08, 8.254859646169123E+07,
2460469.500000000, A.D. 2024-Jun-08 00:00:00.0000, -1.780605415595009E+08, 4.534295274452698E+08, 8.333978855014768E+07,
2460476.500000000, A.D. 2024-Jun-15 00:00:00.0000, -1.868057699293627E+08, 4.499766173765722E+08, 8.409744698573250E+07,
2460483.500000000, A.D. 2024-Jun-22 00:00:00.0000, -1.954758922882540E+08, 4.463429380839886E+08, 8.482130809408471E+07,
2460490.500000000, A.D. 2024-Jun-29 00:00:00.0000, -2.040675107078366E+08, 4.425301481187271E+08, 8.551111873093423E+07,
2460497.500000000, A.D. 2024-Jul-06 00:00:00.0000, -2.125772585006570E+08, 4.385399550827425E+08, 8.616663627879536E+07,
2460504.500000000, A.D. 2024-Jul-13 00:00:00.0000, -2.210017997733920E+08, 4.343741139811792E+08, 8.678762845791435E+07,
2460511.500000000, A.D. 2024-Jul-20 00:00:00.0000, -2.293378288192539E+08, 4.300344268350348E+08, 8.737387322787550E+07,
2460518.500000000, A.D. 2024-Jul-27 00:00:00.0000, -2.375820700073808E+08, 4.255227425945835E+08, 8.792515876194626E+07,
2460525.500000000, A.D. 2024-Aug-03 00:00:00.0000, -2.457312778980771E+08, 4.208409569785652E+08, 8.844128343881276E+07,
2460532.500000000, A.D. 2024-Aug-10 00:00:00.0000, -2.537822374196644E+08, 4.159910122351889E+08, 8.892205583643916E+07,
2460539.500000000, A.D. 2024-Aug-17 00:00:00.0000, -2.617317640606028E+08, 4.109748968472089E+08, 8.936729472559682E+07,
2460546.500000000, A.D. 2024-Aug-24 00:00:00.0000, -2.695767040496943E+08, 4.057946451589538E+08, 8.977682905854912E+07,
2460553.500000000, A.D. 2024-Aug-31 00:00:00.0000, -2.773139344093370E+08, 4.004523368634692E+08, 9.015049793696178E+07,
2460560.500000000, A.D. 2024-Sep-07 00:00:00.0000, -2.849403625170694E+08, 3.949500964754061E+08, 9.048815053547442E+07,
2460567.500000000, A.D. 2024-Sep-14 00:00:00.0000, -2.924529250913727E+08, 3.892900937847208E+08, 9.078964605421919E+07,
2460574.500000000, A.D. 2024-Sep-21 00:00:00.0000, -2.998485886322770E+08, 3.834745457037783E+08, 9.105485392009175E+07,
2460581.500000000, A.D. 2024-Sep-28 00:00:00.0000, -3.071243518046908E+08, 3.775057162804783E+08, 9.128365401761909E+07,
2460588.500000000, A.D. 2024-Oct-05 00:00:00.0000, -3.142772460942286E+08, 3.713859148768780E+08, 9.147593661233437E+07,
2460595.500000000, A.D. 2024-Oct-12 00:00:00.0000, -3.213043350981002E+08, 3.651174954914855E+08, 9.163160224313051E+07,
2460602.500000000, A.D. 2024-Oct-19 00:00:00.0000, -3.282027142041513E+08, 3.587028569548169E+08, 9.175056172241461E+07,
2460609.500000000, A.D. 2024-Oct-26 00:00:00.0000, -3.349695106911381E+08, 3.521444431968527E+08, 9.183273618162245E+07,
2460616.500000000, A.D. 2024-Nov-02 00:00:00.0000, -3.416018839934325E+08, 3.454447434372500E+08, 9.187805712631215E+07,
2460623.500000000, A.D. 2024-Nov-09 00:00:00.0000, -3.480970260343304E+08, 3.386062923182162E+08, 9.188646649366872E+07,
2460630.500000000, A.D. 2024-Nov-16 00:00:00.0000, -3.544521616029194E+08, 3.316316699796166E+08, 9.185791671012349E+07,
2460637.500000000, A.D. 2024-Nov-23 00:00:00.0000, -3.606645487284216E+08, 3.245235020257522E+08, 9.179237074078445E+07,
2460644.500000000, A.D. 2024-Nov-30 00:00:00.0000, -3.667314788445255E+08, 3.172844593403948E+08, 9.168980210816593E+07,
2460651.500000000, A.D. 2024-Dec-07 00:00:00.0000, -3.726502763251086E+08, 3.099172581697285E+08, 9.155019487619604E+07,
2460658.500000000, A.D. 2024-Dec-14 00:00:00.0000, -3.784182980813291E+08, 3.024246616961316E+08, 9.137354376287290E+07,
2460665.500000000, A.D. 2024-Dec-21 00:00:00.0000, -3.840329355406497E+08, 2.948094818618628E+08, 9.115985449331334E+07,
2460672.500000000, A.D. 2024-Dec-28 00:00:00.0000, -3.894916170357795E+08, 2.870745784754227E+08, 9.090914397005862E+07,
2460679.500000000, A.D. 2025-Jan-04 00:00:00.0000, -3.947918080056252E+08, 2.792228579745849E+08, 9.062144021635732E+07,
2460686.500000000, A.D. 2025-Jan-11 00:00:00.0000, -3.999310108312743E+08, 2.712572735037304E+08, 9.029678239535560E+07,
2460693.500000000, A.D. 2025-Jan-18 00:00:00.0000, -4.049067652262121E+08, 2.631808253863585E+08, 8.993522091487151E+07,
2460700.500000000, A.D. 2025-Jan-25 00:00:00.0000, -4.097166489383074E+08, 2.549965615178454E+08, 8.953681755707373E+07,
2460707.500000000, A.D. 2025-Feb-01 00:00:00.0000, -4.143582785747535E+08, 2.467075776473377E+08, 8.910164561348560E+07,
2460714.500000000, A.D. 2025-Feb-08 00:00:00.0000, -4.188293104923321E+08, 2.383170175673437E+08, 8.862979002177602E+07,
2460721.500000000, A.D. 2025-Feb-15 00:00:00.0000, -4.231274417248933E+08, 2.298280731899651E+08, 8.812134750017591E+07,
$$EOE